[{"OBJECT_NAME":"KINEIS-5A","OBJECT_ID":"2024-219D","EPOCH":"2026-03-08T15:03:13.288032","MEAN_MOTION":14.72183086,"ECCENTRICITY":0.00019623,"INCLINATION":97.9753,"RA_OF_ASC_NODE":229.3802,"ARG_OF_PERICENTER":203.7354,"MEAN_ANOMALY":156.3764,"EPHEMERIS_TYPE":0,"CLASSIFICATION_TYPE":"U","NORAD_CAT_ID":62084,"ELEMENT_SET_NO":999,"REV_AT_EPOCH":6897,"BSTAR":0.00011705612,"MEAN_MOTION_DOT":6.89e-6,"MEAN_MOTION_DDOT":0},{"OBJECT_NAME":"CZ-6A DEB","OBJECT_ID":"2024-140ZK","EPOCH":"2026-03-09T15:07:37.881984","MEAN_MOTION":14.67315318,"ECCENTRICITY":0.0103307,"INCLINATION":89.0371,"RA_OF_ASC_NODE":284.3538,"ARG_OF_PERICENTER":220.4483,"MEAN_ANOMALY":138.9022,"EPHEMERIS_TYPE":0,"CLASSIFICATION_TYPE":"U","NORAD_CAT_ID":61453,"ELEMENT_SET_NO":999,"REV_AT_EPOCH":8151,"BSTAR":0.0012478,"MEAN_MOTION_DOT":7.649e-5,"MEAN_MOTION_DDOT":0}]
